HULIANWANG DIGUI-02     
1 62324U 24240B   26090.87095523  .00000080  00000+0  15254-3 0  9992
2 62324  86.5086   9.4468 0002025  79.0171 281.1191 13.24410869 62411
HULIANWANG DIGUI-03     
1 62325U 24240C   26090.85582698  .00000068  00000+0  12393-3 0  9992
2 62325  86.5039   9.2296 0002035  75.9005 284.2356 13.24410285 62407
HULIANWANG DIGUI-04     
1 62326U 24240D   26090.84830715  .00000047  00000+0  75234-4 0  9999
2 62326  86.5049   9.2661 0002103  74.2946 285.8420 13.24410431 62409
HULIANWANG DIGUI-05     
1 62327U 24240E   26090.84080200  .00000041  00000+0  61537-4 0  9991
2 62327  86.5101   9.5014 0002080  72.0725 288.0635 13.24411208 62405
HULIANWANG DIGUI-06     
1 62328U 24240F   26090.82556337  .00000041  00000+0  61769-4 0  9996
2 62328  86.5039   9.2095 0002181  77.1367 283.0011 13.24412145 62406
HULIANWANG DIGUI-07     
1 62329U 24240G   26090.81813026  .00000051  00000+0  84596-4 0  9991
2 62329  86.5010   9.0728 0002086  76.9920 283.1447 13.24411513 62405
HULIANWANG DIGUI-08     
1 62330U 24240H   26090.83326063  .00000034  00000+0  45937-4 0  9992
2 62330  86.5093   9.4592 0002133  71.2431 288.8934 13.24411648 62401
HULIANWANG DIGUI-09     
1 62331U 24240J   26090.81049904  .00000070  00000+0  13010-3 0  9993
2 62331  86.5059   9.3533 0002054  76.4953 283.6410 13.24410791 62394
HULIANWANG DIGUI-10     
1 62332U 24240K   26090.80299273  .00000082  00000+0  15634-3 0  9996
2 62332  86.5089   9.4861 0002150  76.8953 283.2420 13.24410652 62397
PIESAT-2 09             
1 62333U 24241A   26090.61915098  .00011865  00000+0  66663-3 0  9996
2 62333  97.5269  39.1621 0001667  92.3460 267.7962 15.13458687 71064
PIESAT-2 10             
1 62334U 24241B   26090.83501337  .00012450  00000+0  69862-3 0  9993
2 62334  97.5325  39.7174 0001810  92.4778 267.6660 15.13489386 71109
PIESAT-2 11             
1 62335U 24241C   26090.58584497  .00010275  00000+0  57779-3 0  9991
2 62335  97.5241  39.0402 0001743  88.2508 271.8922 15.13465221 71079
PIESAT-2 12             
1 62336U 24241D   26090.86680575  .00013337  00000+0  74811-3 0  9995
2 62336  97.5215  39.2880 0001679  95.0325 265.1098 15.13488736 71104
NAVSTAR 83 (USA 440)    
1 62339U 24242A   26088.33030772 -.00000092  00000+0  00000+0 0  9996
2 62339  54.8812 337.4202 0016510 359.4327 186.8882  2.00570004  9659
O3B MPOWER F7           
1 62362U 24244A   26090.71788403 -.00000028  00000+0  00000+0 0  9999
2 62362   0.0717   1.6818 0006101   6.9145 351.4106  5.00115202 22654
O3B MPOWER F8           
1 62363U 24244B   26090.28506082 -.00000028  00000+0  00000+0 0  9993
2 62363   0.0429 315.3372 0006447  45.7446 358.9158  5.00115620 16974
TIANQI-33               
1 62365U 24245A   26090.90718222  .00000135  00000+0  18089-3 0  9994
2 62365  44.9840 305.8902 0008157   9.8473 350.2518 13.99182196 65534
TIANQI-34               
1 62366U 24245B   26090.89030423  .00000138  00000+0  18312-3 0  9995
2 62366  44.9806 305.6705 0005006  16.3720 343.7273 13.99161834 65502
TIANQI-35               
1 62367U 24245C   26090.80015218  .00000131  00000+0  17786-3 0  9999
2 62367  44.9852 306.0410 0010439 358.1366   1.9427 13.99167117 65505
TIANQI-36               
1 62368U 24245D   26090.78220019  .00000137  00000+0  18233-3 0  9998
2 62368  44.9850 305.9230 0008672   8.3500 351.7476 13.99193172 65502
TJS-12                  
1 62374U 24246A   26090.85385669 -.00000244  00000+0  00000+0 0  9996
2 62374   0.8464 293.2304 0002523  44.7733 305.0467  1.00275669  4789
KORSAT-2                
1 62377U 24247A   26090.33640309  .00000228  00000+0  37395-4 0  9991
2 62377  45.4114 111.3279 0008741 171.2150 188.8883 14.98794947 69884
TANSTAAFL-2             
1 62378U 24247B   26090.08573569  .00013700  00000+0  49468-3 0  9999
2 62378  44.9883   0.0503 0001039 155.2946 204.7987 15.28480521 71008
HAWK-11B                
1 62379U 24247C   26090.46409997  .00010889  00000+0  38629-3 0  9997
2 62379  45.0185 355.3363 0003406 143.2290 216.8828 15.29255211 71101
BANDWAGON-2 OBJECT D    
1 62380U 24247D   26090.14360150  .00014808  00000+0  51639-3 0  9992
2 62380  44.9974 357.3207 0003463 166.4372 193.6605 15.29561279 71049
HAWK-11C                
1 62381U 24247E   26090.46365562  .00010995  00000+0  38990-3 0  9998
2 62381  45.0067 354.7851 0004203 126.9083 233.2186 15.29254626 71101
HAWK-11A                
1 62382U 24247F   26090.13716244  .00012420  00000+0  43908-3 0  9990
2 62382  44.9956 356.0077 0003647 124.6930 235.4297 15.29248850 71052
LIZZIESAT-2 (LS-2)      
1 62383U 24247G   26090.45151678  .00010591  00000+0  38277-3 0  9990
2 62383  44.9959 357.0286 0001935 133.7808 226.3236 15.28670608 71075
ICEYE-X49               
1 62384U 24247H   26090.30850810  .00008226  00000+0  48144-3 0  9995
2 62384  44.9986  52.9376 0001542 302.8188  57.2540 15.12286657 70383
BANDWAGON-2 OBJECT J    
1 62385U 24247J   26090.71881469  .00046661  00000+0  95140-3 0  9998
2 62385  45.0018 328.3465 0008333 173.1129 186.9877 15.45517793 71445
TOMORROW-S4             
1 62386U 24247K   26090.43543602  .00008920  00000+0  32981-3 0  9992
2 62386  44.9836 358.3373 0004279 310.1264  49.9244 15.28093346 71058
BANDWAGON-2 OBJECT L    
1 62387U 24247L   26090.84024336  .00049941  00000+0  97459-3 0  9995
2 62387  44.9922 325.5758 0008170 184.1486 175.9338 15.46767382 71486
GITAI-SC1               
1 62388U 24247M   26090.48386606  .00008272  00000+0  38327-3 0  9998
2 62388  45.0036  11.5458 0000748 287.6108  72.4690 15.20549264 70904
ICEYE-X47               
1 62389U 24247N   26090.23210293  .00009205  00000+0  53370-3 0  9992
2 62389  44.9968  53.1294 0000792 253.3583 106.7207 15.12506048 70373
LASARSAT                
1 62391U 24247Q   26090.40279860  .00037643  00000+0  87723-3 0  9995
2 62391  44.9776 337.7469 0004915 218.0536 142.0006 15.41670540 71298
TOMORROW-S3             
1 62392U 24247R   26090.46636806  .00009820  00000+0  36245-3 0  9998
2 62392  45.0049 358.0137 0002641 242.4654 117.5961 15.28052322 71067
BANDWAGON-2 OBJECT S    
1 62393U 24247S   26090.01512409  .00160026  00000+0  17281-2 0  9996
2 62393  44.9698 317.1215 0010902 226.8974 133.1011 15.62349795 71509
CROCUBE                 
1 62394U 24247T   26090.09167125  .00047582  00000+0  10595-2 0  9998
2 62394  44.9745 337.8767 0004295 214.1395 145.9218 15.42938843 71268
BANDWAGON-2 OBJECT U    
1 62395U 24247U   26090.08066459  .00041054  00000+0  90710-3 0  9992
2 62395  44.9972 334.4706 0007368 161.5276 198.5882 15.43211246 71313
BANDWAGON-2 OBJECT V    
1 62396U 24247V   26090.03753192  .00056620  00000+0  11193-2 0  9997
2 62396  44.9952 330.6763 0008271 175.5197 184.5768 15.46342272 71353
BANDWAGON-2 OBJECT W    
1 62397U 24247W   26090.50890052  .05988325  10218-4  18516-2 0  9991
2 62397  44.9725 289.2443 0015002 278.5529  81.3691 16.25382368 71884
BANDWAGON-2 OBJECT Y    
1 62399U 24247Y   26090.05570879  .00045415  00000+0  98724-3 0  9997
2 62399  44.9999 334.3504 0007340 159.7947 200.3234 15.43653551 71317
XCUBE-1                 
1 62400U 24247Z   26090.70889568  .00011855  00000+0  43096-3 0  9993
2 62400  44.9990 356.3382 0003306 121.3301 238.7906 15.28376279 71106
CTC-0                   
1 62401U 24247AA  26090.40185259  .00023375  00000+0  64490-3 0  9998
2 62401  44.9748 341.8389 0006531 174.5713 185.5245 15.36727253 71245
DJIBOUTI-1B             
1 62402U 24247AB  26090.05265118  .00063328  00000+0  11616-2 0  9996
2 62402  44.9739 326.7181 0007255 181.3861 178.7010 15.48461437 71394
BANDWAGON-2 OBJECT AC   
1 62403U 24247AC  26090.42164511  .00023853  00000+0  67238-3 0  9994
2 62403  45.0064 346.9759 0003973 170.1536 189.9429 15.36059698 71196
BANDWAGON-2 OBJECT AD   
1 62404U 24247AD  26090.02789487  .00050815  00000+0  10259-2 0  9994
2 62404  44.9969 331.4983 0008142 172.4944 187.6069 15.45774986 71344
BANDWAGON-2 OBJECT AE   
1 62405U 24247AE  26090.90129817  .00070067  00000+0  11321-2 0  9999
2 62405  44.9778 318.0481 0008709 194.5601 165.5041 15.51989598 70989
STRIX-2                 
1 62406U 24248A   26090.85891968  .00009957  00000+0  64979-3 0  9996
2 62406  97.6231  47.0357 0014151 235.8137 124.1750 15.07980291 69934
STARLINK-11444 [DTC]    
1 62409U 24249A   26090.85809160  .00320264  00000+0  23968-2 0  9992
2 62409  42.9999  34.3449 0001581 240.2258 119.8453 15.70916461 72965
STARLINK-11493 [DTC]    
1 62410U 24249B   26090.54549825  .00259450  00000+0  19588-2 0  9990
2 62410  43.0005  36.3029 0002048  54.3446 305.7612 15.70891281 72915
STARLINK-11453 [DTC]    
1 62411U 24249C   26090.19570974  .00244414  00000+0  18475-2 0  9999
2 62411  43.0019  37.9626 0002102 260.9308  99.1322 15.70907865 72866
STARLINK-11462 [DTC]    
1 62412U 24249D   26090.83656657  .00842856  00000+0  56487-2 0  9993
2 62412  43.0008  34.1683 0002321 239.4464 120.6175 15.72003950 72965
STARLINK-11441 [DTC]    
1 62413U 24249E   26090.56129652  .00295536  00000+0  22205-2 0  9992
2 62413  43.0019  35.5359 0003587  52.3100 307.8092 15.70893749 72921
STARLINK-11445 [DTC]    
1 62414U 24249F   26090.82623552  .00396601  00000+0  29266-2 0  9999
2 62414  43.0019  34.0877 0001927 248.7308 111.3354 15.71023968 72960
STARLINK-11355 [DTC]    
1 62415U 24249G   26090.88450815  .00335384  00000+0  24949-2 0  9990
2 62415  43.0010  33.6532 0002210 250.0109 110.0521 15.71013910 72975
STARLINK-11446 [DTC]    
1 62416U 24249H   26090.29632843  .00264828  00000+0  19960-2 0  9990
2 62416  43.0002  36.9811 0001926 249.3183 110.7478 15.70914619 72882
STARLINK-11428 [DTC]    
1 62417U 24249J   26090.84747178  .00401433  00000+0  29563-2 0  9995
2 62417  42.9997  34.2649 0002131 227.1534 132.9155 15.71057011 72969
STARLINK-11447 [DTC]    
1 62418U 24249K   26090.55598134  .00248781  00000+0  18821-2 0  9990
2 62418  42.9999  35.4905 0000813 323.4926  36.5886 15.70874656 72927
